STARLINK-32234          
1 60414U 24141S   25310.79985635  .00002564  00000+0  98747-4 0  9995
2 60414  53.1596  93.5387 0001348  88.9312 271.1843 15.30177643 70761
STARLINK-32265          
1 60415U 24141T   25311.64580595 -.00001198  00000+0 -28364-4 0  9999
2 60415  53.1589  89.5759 0001430  84.0641 276.0522 15.30175742 70896
STARLINK-32197          
1 60416U 24141U   25311.65220780  .00003855  00000+0  14223-3 0  9996
2 60416  53.1607  79.6506 0001141  70.8233 289.2891 15.30198522 70972
STARLINK-32255          
1 60417U 24141V   25311.76693549 -.00001512  00000+0 -38951-4 0  9991
2 60417  53.1574  88.9076 0001423  95.1240 264.9923 15.30183094 70910
STARLINK-32236          
1 60418U 24141W   25311.76273638 -.00001278  00000+0 -30914-4 0  9995
2 60418  53.1600  88.8804 0006452  61.8996 298.2656 15.30179878 70912
STARLINK-32250          
1 60425U 24144A   25311.73533497 -.00003296  00000+0 -99277-4 0  9994
2 60425  53.1618  63.8665 0001121  81.9252 278.1876 15.30181472 69735
STARLINK-32226          
1 60426U 24144B   25311.73426681  .00001643  00000+0  67560-4 0  9993
2 60426  53.1611  63.8598 0001402  87.6593 272.4568 15.30208673 70636
STARLINK-32254          
1 60427U 24144C   25311.72161823  .00000302  00000+0  22323-4 0  9996
2 60427  53.1610  63.7795 0001500  74.0478 286.0688 15.30197418 70677
STARLINK-32193          
1 60428U 24144D   25311.73215713  .00000970  00000+0  44870-4 0  9998
2 60428  53.1614  63.8460 0001333  78.9146 281.2005 15.30206636 70674
STARLINK-32242          
1 60429U 24144E   25311.72477402 -.00007984  00000+0 -25755-3 0  9997
2 60429  53.1612  63.7998 0001042  73.1863 286.9252 15.30224048 70671
STARLINK-32196          
1 60430U 24144F   25311.71845032 -.00000561  00000+0 -68008-5 0  9990
2 60430  53.1604  63.7598 0002526  91.6297 268.4993 15.30186996 70636
STARLINK-32232          
1 60431U 24144G   25311.72899840  .00000295  00000+0  22102-4 0  9994
2 60431  53.1599  63.8277 0001342  86.8979 273.2175 15.30197274 70630
STARLINK-32246          
1 60432U 24144H   25311.71740287 -.00001345  00000+0 -33319-4 0  9995
2 60432  53.1598  63.7536 0001409  85.2969 274.8193 15.30181335 70631
STARLINK-32183          
1 60433U 24144J   25311.71529641 -.00002940  00000+0 -87276-4 0  9998
2 60433  53.1616  63.7388 0001050  69.6540 290.4573 15.30171729 70633
STARLINK-32233          
1 60434U 24144K   25311.70579698 -.00003815  00000+0 -11680-3 0  9992
2 60434  53.1605  63.6815 0001313  74.6013 285.5133 15.30182399 70631
STARLINK-32222          
1 60435U 24144L   25311.57833251 -.00002099  00000+0 -58773-4 0  9994
2 60435  53.1595  64.3076 0001948  91.5701 268.5523 15.30177334 70618
STARLINK-32229          
1 60436U 24144M   25310.72288688  .00004196  00000+0  15380-3 0  9993
2 60436  53.1607  68.2126 0001318  79.1849 280.9300 15.30180618 70483
