[{"OBJECT_NAME":"STARLINK-32234","OBJECT_ID":"2024-141S","EPOCH":"2025-11-06T19:11:47.588640","MEAN_MOTION":15.30177643,"ECCENTRICITY":0.00013481,"INCLINATION":53.1596,"RA_OF_ASC_NODE":93.5387,"ARG_OF_PERICENTER":88.9312,"MEAN_ANOMALY":271.1843,"EPHEMERIS_TYPE":0,"CLASSIFICATION_TYPE":"U","NORAD_CAT_ID":60414,"ELEMENT_SET_NO":999,"REV_AT_EPOCH":7076,"BSTAR":9.8747028e-5,"MEAN_MOTION_DOT":2.564e-5,"MEAN_MOTION_DDOT":0},{"OBJECT_NAME":"STARLINK-32265","OBJECT_ID":"2024-141T","EPOCH":"2025-11-07T15:29:57.634080","MEAN_MOTION":15.30175742,"ECCENTRICITY":0.000143,"INCLINATION":53.1589,"RA_OF_ASC_NODE":89.5759,"ARG_OF_PERICENTER":84.0641,"MEAN_ANOMALY":276.0522,"EPHEMERIS_TYPE":0,"CLASSIFICATION_TYPE":"U","NORAD_CAT_ID":60415,"ELEMENT_SET_NO":999,"REV_AT_EPOCH":7089,"BSTAR":-2.8364e-5,"MEAN_MOTION_DOT":-1.198e-5,"MEAN_MOTION_DDOT":0},{"OBJECT_NAME":"STARLINK-32197","OBJECT_ID":"2024-141U","EPOCH":"2025-11-07T15:39:10.753920","MEAN_MOTION":15.30198522,"ECCENTRICITY":0.0001141,"INCLINATION":53.1607,"RA_OF_ASC_NODE":79.6506,"ARG_OF_PERICENTER":70.8233,"MEAN_ANOMALY":289.2891,"EPHEMERIS_TYPE":0,"CLASSIFICATION_TYPE":"U","NORAD_CAT_ID":60416,"ELEMENT_SET_NO":999,"REV_AT_EPOCH":7097,"BSTAR":0.00014223,"MEAN_MOTION_DOT":3.855e-5,"MEAN_MOTION_DDOT":0},{"OBJECT_NAME":"STARLINK-32255","OBJECT_ID":"2024-141V","EPOCH":"2025-11-07T18:24:23.226336","MEAN_MOTION":15.30183094,"ECCENTRICITY":0.0001423,"INCLINATION":53.1574,"RA_OF_ASC_NODE":88.9076,"ARG_OF_PERICENTER":95.124,"MEAN_ANOMALY":264.9923,"EPHEMERIS_TYPE":0,"CLASSIFICATION_TYPE":"U","NORAD_CAT_ID":60417,"ELEMENT_SET_NO":999,"REV_AT_EPOCH":7091,"BSTAR":-3.8951e-5,"MEAN_MOTION_DOT":-1.512e-5,"MEAN_MOTION_DDOT":0},{"OBJECT_NAME":"STARLINK-32236","OBJECT_ID":"2024-141W","EPOCH":"2025-11-07T18:18:20.423232","MEAN_MOTION":15.30179878,"ECCENTRICITY":0.0006452,"INCLINATION":53.16,"RA_OF_ASC_NODE":88.8804,"ARG_OF_PERICENTER":61.8996,"MEAN_ANOMALY":298.2656,"EPHEMERIS_TYPE":0,"CLASSIFICATION_TYPE":"U","NORAD_CAT_ID":60418,"ELEMENT_SET_NO":999,"REV_AT_EPOCH":7091,"BSTAR":-3.0914e-5,"MEAN_MOTION_DOT":-1.278e-5,"MEAN_MOTION_DDOT":0},{"OBJECT_NAME":"STARLINK-32250","OBJECT_ID":"2024-144A","EPOCH":"2025-11-07T17:38:52.941408","MEAN_MOTION":15.30181472,"ECCENTRICITY":0.0001121,"INCLINATION":53.1618,"RA_OF_ASC_NODE":63.8665,"ARG_OF_PERICENTER":81.9252,"MEAN_ANOMALY":278.1876,"EPHEMERIS_TYPE":0,"CLASSIFICATION_TYPE":"U","NORAD_CAT_ID":60425,"ELEMENT_SET_NO":999,"REV_AT_EPOCH":6973,"BSTAR":-9.9277e-5,"MEAN_MOTION_DOT":-3.296e-5,"MEAN_MOTION_DDOT":0},{"OBJECT_NAME":"STARLINK-32226","OBJECT_ID":"2024-144B","EPOCH":"2025-11-07T17:37:20.652384","MEAN_MOTION":15.30208673,"ECCENTRICITY":0.0001402,"INCLINATION":53.1611,"RA_OF_ASC_NODE":63.8598,"ARG_OF_PERICENTER":87.6593,"MEAN_ANOMALY":272.4568,"EPHEMERIS_TYPE":0,"CLASSIFICATION_TYPE":"U","NORAD_CAT_ID":60426,"ELEMENT_SET_NO":999,"REV_AT_EPOCH":7063,"BSTAR":6.756e-5,"MEAN_MOTION_DOT":1.643e-5,"MEAN_MOTION_DDOT":0},{"OBJECT_NAME":"STARLINK-32254","OBJECT_ID":"2024-144C","EPOCH":"2025-11-07T17:19:07.815072","MEAN_MOTION":15.30197418,"ECCENTRICITY":0.00015,"INCLINATION":53.161,"RA_OF_ASC_NODE":63.7795,"ARG_OF_PERICENTER":74.0478,"MEAN_ANOMALY":286.0688,"EPHEMERIS_TYPE":0,"CLASSIFICATION_TYPE":"U","NORAD_CAT_ID":60427,"ELEMENT_SET_NO":999,"REV_AT_EPOCH":7067,"BSTAR":2.2323e-5,"MEAN_MOTION_DOT":3.02e-6,"MEAN_MOTION_DDOT":0},{"OBJECT_NAME":"STARLINK-32193","OBJECT_ID":"2024-144D","EPOCH":"2025-11-07T17:34:18.376032","MEAN_MOTION":15.30206636,"ECCENTRICITY":0.0001333,"INCLINATION":53.1614,"RA_OF_ASC_NODE":63.846,"ARG_OF_PERICENTER":78.9146,"MEAN_ANOMALY":281.2005,"EPHEMERIS_TYPE":0,"CLASSIFICATION_TYPE":"U","NORAD_CAT_ID":60428,"ELEMENT_SET_NO":999,"REV_AT_EPOCH":7067,"BSTAR":4.487e-5,"MEAN_MOTION_DOT":9.7e-6,"MEAN_MOTION_DDOT":0},{"OBJECT_NAME":"STARLINK-32242","OBJECT_ID":"2024-144E","EPOCH":"2025-11-07T17:23:40.475328","MEAN_MOTION":15.30224048,"ECCENTRICITY":0.0001042,"INCLINATION":53.1612,"RA_OF_ASC_NODE":63.7998,"ARG_OF_PERICENTER":73.1863,"MEAN_ANOMALY":286.9252,"EPHEMERIS_TYPE":0,"CLASSIFICATION_TYPE":"U","NORAD_CAT_ID":60429,"ELEMENT_SET_NO":999,"REV_AT_EPOCH":7067,"BSTAR":-0.00025755,"MEAN_MOTION_DOT":-7.984e-5,"MEAN_MOTION_DDOT":0},{"OBJECT_NAME":"STARLINK-32196","OBJECT_ID":"2024-144F","EPOCH":"2025-11-07T17:14:34.107648","MEAN_MOTION":15.30186996,"ECCENTRICITY":0.0002526,"INCLINATION":53.1604,"RA_OF_ASC_NODE":63.7598,"ARG_OF_PERICENTER":91.6297,"MEAN_ANOMALY":268.4993,"EPHEMERIS_TYPE":0,"CLASSIFICATION_TYPE":"U","NORAD_CAT_ID":60430,"ELEMENT_SET_NO":999,"REV_AT_EPOCH":7063,"BSTAR":-6.8008e-6,"MEAN_MOTION_DOT":-5.61e-6,"MEAN_MOTION_DDOT":0},{"OBJECT_NAME":"STARLINK-32232","OBJECT_ID":"2024-144G","EPOCH":"2025-11-07T17:29:45.461760","MEAN_MOTION":15.30197274,"ECCENTRICITY":0.0001342,"INCLINATION":53.1599,"RA_OF_ASC_NODE":63.8277,"ARG_OF_PERICENTER":86.8979,"MEAN_ANOMALY":273.2175,"EPHEMERIS_TYPE":0,"CLASSIFICATION_TYPE":"U","NORAD_CAT_ID":60431,"ELEMENT_SET_NO":999,"REV_AT_EPOCH":7063,"BSTAR":2.2102e-5,"MEAN_MOTION_DOT":2.95e-6,"MEAN_MOTION_DDOT":0},{"OBJECT_NAME":"STARLINK-32246","OBJECT_ID":"2024-144H","EPOCH":"2025-11-07T17:13:03.607968","MEAN_MOTION":15.30181335,"ECCENTRICITY":0.0001409,"INCLINATION":53.1598,"RA_OF_ASC_NODE":63.7536,"ARG_OF_PERICENTER":85.2969,"MEAN_ANOMALY":274.8193,"EPHEMERIS_TYPE":0,"CLASSIFICATION_TYPE":"U","NORAD_CAT_ID":60432,"ELEMENT_SET_NO":999,"REV_AT_EPOCH":7063,"BSTAR":-3.3319e-5,"MEAN_MOTION_DOT":-1.345e-5,"MEAN_MOTION_DDOT":0},{"OBJECT_NAME":"STARLINK-32183","OBJECT_ID":"2024-144J","EPOCH":"2025-11-07T17:10:01.609824","MEAN_MOTION":15.30171729,"ECCENTRICITY":0.000105,"INCLINATION":53.1616,"RA_OF_ASC_NODE":63.7388,"ARG_OF_PERICENTER":69.654,"MEAN_ANOMALY":290.4573,"EPHEMERIS_TYPE":0,"CLASSIFICATION_TYPE":"U","NORAD_CAT_ID":60433,"ELEMENT_SET_NO":999,"REV_AT_EPOCH":7063,"BSTAR":-8.7276e-5,"MEAN_MOTION_DOT":-2.94e-5,"MEAN_MOTION_DDOT":0},{"OBJECT_NAME":"STARLINK-32233","OBJECT_ID":"2024-144K","EPOCH":"2025-11-07T16:56:20.859072","MEAN_MOTION":15.30182399,"ECCENTRICITY":0.0001313,"INCLINATION":53.1605,"RA_OF_ASC_NODE":63.6815,"ARG_OF_PERICENTER":74.6013,"MEAN_ANOMALY":285.5133,"EPHEMERIS_TYPE":0,"CLASSIFICATION_TYPE":"U","NORAD_CAT_ID":60434,"ELEMENT_SET_NO":999,"REV_AT_EPOCH":7063,"BSTAR":-0.0001168,"MEAN_MOTION_DOT":-3.815e-5,"MEAN_MOTION_DDOT":0},{"OBJECT_NAME":"STARLINK-32222","OBJECT_ID":"2024-144L","EPOCH":"2025-11-07T13:52:47.928864","MEAN_MOTION":15.30177334,"ECCENTRICITY":0.0001948,"INCLINATION":53.1595,"RA_OF_ASC_NODE":64.3076,"ARG_OF_PERICENTER":91.5701,"MEAN_ANOMALY":268.5523,"EPHEMERIS_TYPE":0,"CLASSIFICATION_TYPE":"U","NORAD_CAT_ID":60435,"ELEMENT_SET_NO":999,"REV_AT_EPOCH":7061,"BSTAR":-5.8773e-5,"MEAN_MOTION_DOT":-2.099e-5,"MEAN_MOTION_DDOT":0},{"OBJECT_NAME":"STARLINK-32229","OBJECT_ID":"2024-144M","EPOCH":"2025-11-06T17:20:57.426432","MEAN_MOTION":15.30180618,"ECCENTRICITY":0.00013188,"INCLINATION":53.1607,"RA_OF_ASC_NODE":68.2126,"ARG_OF_PERICENTER":79.1849,"MEAN_ANOMALY":280.93,"EPHEMERIS_TYPE":0,"CLASSIFICATION_TYPE":"U","NORAD_CAT_ID":60436,"ELEMENT_SET_NO":999,"REV_AT_EPOCH":7048,"BSTAR":0.00015379966,"MEAN_MOTION_DOT":4.196e-5,"MEAN_MOTION_DDOT":0}]
